{
  "type": "FeatureCollection",
  "features": [
    {
      "type": "Feature",
      "properties": {
        "norad_id": 37867,
        "name": "COSMOS 2476 (744)",
        "group": "glo-ops",
        "lat": -4.655711953887555,
        "lon": -99.1739031266111,
        "alt_km": 19090.498614821343,
        "timestamp": "2025-12-27T22:26:48.864783+00:00",
        "meta_object_name": "COSMOS 2476 (744)",
        "meta_object_id": "2011-064A",
        "meta_epoch": "2025-12-27T05:38:18.293280",
        "meta_mean_motion": 2.13103875,
        "meta_eccentricity": 0.00245828,
        "meta_inclination": 65.1694,
        "meta_ra_of_asc_node": 78.6813,
        "meta_arg_of_pericenter": 235.16,
        "meta_mean_anomaly": 132.8776,
        "meta_ephemeris_type": 0,
        "meta_classification_type": "U",
        "meta_norad_cat_id": 37867,
        "meta_element_set_no": 999,
        "meta_rev_at_epoch": 11010,
        "meta_bstar": 0,
        "meta_mean_motion_dot": -1.3e-07,
        "meta_mean_motion_ddot": 0,
        "tle_line1": "1 37867U 11064A   25361.23493395 -.00000013  00000+0  00000+0 0  9991",
        "tle_line2": "2 37867  65.1694  78.6813 0024582 235.1600 132.8776  2.13103875110102"
      },
      "geometry": {
        "type": "Point",
        "coordinates": [
          -99.1739031266111,
          -4.655711953887555
        ]
      }
    },
    {
      "type": "Feature",
      "properties": {
        "norad_id": 37868,
        "name": "COSMOS 2477 (745)",
        "group": "glo-ops",
        "lat": 5.7653477436706435,
        "lon": 81.42057791520456,
        "alt_km": 19165.642936393917,
        "timestamp": "2025-12-27T22:26:48.864795+00:00",
        "meta_object_name": "COSMOS 2477 (745)",
        "meta_object_id": "2011-064B",
        "meta_epoch": "2025-12-24T15:22:57.950400",
        "meta_mean_motion": 2.13103036,
        "meta_eccentricity": 0.00215718,
        "meta_inclination": 65.1748,
        "meta_ra_of_asc_node": 78.8466,
        "meta_arg_of_pericenter": 235.4688,
        "meta_mean_anomaly": 123.4303,
        "meta_ephemeris_type": 0,
        "meta_classification_type": "U",
        "meta_norad_cat_id": 37868,
        "meta_element_set_no": 999,
        "meta_rev_at_epoch": 11003,
        "meta_bstar": 0,
        "meta_mean_motion_dot": 1e-08,
        "meta_mean_motion_ddot": 0,
        "tle_line1": "1 37868U 11064B   25358.64094850  .00000001  00000+0  00000+0 0  9992",
        "tle_line2": "2 37868  65.1748  78.8466 0021571 235.4688 123.4303  2.13103036110036"
      },
      "geometry": {
        "type": "Point",
        "coordinates": [
          81.42057791520456,
          5.7653477436706435
        ]
      }
    },
    {
      "type": "Feature",
      "properties": {
        "norad_id": 37869,
        "name": "COSMOS 2475 (743)",
        "group": "glo-ops",
        "lat": -33.68758499151245,
        "lon": 60.82669626053368,
        "alt_km": 19114.358553374772,
        "timestamp": "2025-12-27T22:26:48.864806+00:00",
        "meta_object_name": "COSMOS 2475 (743)",
        "meta_object_id": "2011-064C",
        "meta_epoch": "2025-12-26T02:48:59.782176",
        "meta_mean_motion": 2.13101658,
        "meta_eccentricity": 0.00268162,
        "meta_inclination": 65.1822,
        "meta_ra_of_asc_node": 78.8169,
        "meta_arg_of_pericenter": 249.2724,
        "meta_mean_anomaly": 118.1607,
        "meta_ephemeris_type": 0,
        "meta_classification_type": "U",
        "meta_norad_cat_id": 37869,
        "meta_element_set_no": 999,
        "meta_rev_at_epoch": 11008,
        "meta_bstar": 0,
        "meta_mean_motion_dot": -5e-08,
        "meta_mean_motion_ddot": 0,
        "tle_line1": "1 37869U 11064C   25360.11735859 -.00000005  00000+0  00000+0 0  9994",
        "tle_line2": "2 37869  65.1822  78.8169 0026816 249.2724 118.1607  2.13101658110082"
      },
      "geometry": {
        "type": "Point",
        "coordinates": [
          60.82669626053368,
          -33.68758499151245
        ]
      }
    },
    {
      "type": "Feature",
      "properties": {
        "norad_id": 39155,
        "name": "COSMOS 2485 (747)",
        "group": "glo-ops",
        "lat": -47.033237844498835,
        "lon": -71.0990081413006,
        "alt_km": 19071.590574968926,
        "timestamp": "2025-12-27T22:26:48.864816+00:00",
        "meta_object_name": "COSMOS 2485 (747)",
        "meta_object_id": "2013-019A",
        "meta_epoch": "2025-12-26T16:36:31.892256",
        "meta_mean_motion": 2.13103192,
        "meta_eccentricity": 0.0025021,
        "meta_inclination": 65.3204,
        "meta_ra_of_asc_node": 79.3983,
        "meta_arg_of_pericenter": 230.593,
        "meta_mean_anomaly": 129.2312,
        "meta_ephemeris_type": 0,
        "meta_classification_type": "U",
        "meta_norad_cat_id": 39155,
        "meta_element_set_no": 999,
        "meta_rev_at_epoch": 9860,
        "meta_bstar": 0,
        "meta_mean_motion_dot": -8e-08,
        "meta_mean_motion_ddot": 0,
        "tle_line1": "1 39155U 13019A   25360.69203579 -.00000008  00000+0  00000+0 0  9991",
        "tle_line2": "2 39155  65.3204  79.3983 0025021 230.5930 129.2312  2.13103192 98601"
      },
      "geometry": {
        "type": "Point",
        "coordinates": [
          -71.0990081413006,
          -47.033237844498835
        ]
      }
    },
    {
      "type": "Feature",
      "properties": {
        "norad_id": 39620,
        "name": "COSMOS 2492 (754)",
        "group": "glo-ops",
        "lat": -64.9870511272296,
        "lon": -141.36809513278888,
        "alt_km": 19112.262509050528,
        "timestamp": "2025-12-27T22:26:48.864827+00:00",
        "meta_object_name": "COSMOS 2492 (754)",
        "meta_object_id": "2014-012A",
        "meta_epoch": "2025-12-26T15:36:55.855008",
        "meta_mean_motion": 2.13103318,
        "meta_eccentricity": 0.00143264,
        "meta_inclination": 65.4001,
        "meta_ra_of_asc_node": 319.7994,
        "meta_arg_of_pericenter": 314.1039,
        "meta_mean_anomaly": 45.7823,
        "meta_ephemeris_type": 0,
        "meta_classification_type": "U",
        "meta_norad_cat_id": 39620,
        "meta_element_set_no": 999,
        "meta_rev_at_epoch": 9156,
        "meta_bstar": 0,
        "meta_mean_motion_dot": -3.5e-07,
        "meta_mean_motion_ddot": 0,
        "tle_line1": "1 39620U 14012A   25360.65064647 -.00000035  00000+0  00000+0 0  9999",
        "tle_line2": "2 39620  65.4001 319.7994 0014326 314.1039  45.7823  2.13103318 91569"
      },
      "geometry": {
        "type": "Point",
        "coordinates": [
          -141.36809513278888,
          -64.9870511272296
        ]
      }
    },
    {
      "type": "Feature",
      "properties": {
        "norad_id": 40001,
        "name": "COSMOS 2500 (755)",
        "group": "glo-ops",
        "lat": 41.24579130235102,
        "lon": 115.75937347424632,
        "alt_km": 19123.496519515837,
        "timestamp": "2025-12-27T22:26:48.864838+00:00",
        "meta_object_name": "COSMOS 2500 (755)",
        "meta_object_id": "2014-032A",
        "meta_epoch": "2025-12-26T08:28:54.444288",
        "meta_mean_motion": 2.13106178,
        "meta_eccentricity": 0.0007619,
        "meta_inclination": 65.3358,
        "meta_ra_of_asc_node": 319.5702,
        "meta_arg_of_pericenter": 219.616,
        "meta_mean_anomaly": 140.3327,
        "meta_ephemeris_type": 0,
        "meta_classification_type": "U",
        "meta_norad_cat_id": 40001,
        "meta_element_set_no": 999,
        "meta_rev_at_epoch": 8977,
        "meta_bstar": 0,
        "meta_mean_motion_dot": -3.4e-07,
        "meta_mean_motion_ddot": 0,
        "tle_line1": "1 40001U 14032A   25360.35340792 -.00000034  00000+0  00000+0 0  9990",
        "tle_line2": "2 40001  65.3358 319.5702 0007619 219.6160 140.3327  2.13106178 89772"
      },
      "geometry": {
        "type": "Point",
        "coordinates": [
          115.75937347424632,
          41.24579130235102
        ]
      }
    },
    {
      "type": "Feature",
      "properties": {
        "norad_id": 40315,
        "name": "COSMOS 2501 (702K)",
        "group": "glo-ops",
        "lat": -54.690314961399196,
        "lon": 151.79086266477884,
        "alt_km": 19136.322349529157,
        "timestamp": "2025-12-27T22:26:48.864850+00:00",
        "meta_object_name": "COSMOS 2501 (702K)",
        "meta_object_id": "2014-075A",
        "meta_epoch": "2025-12-27T01:58:52.696704",
        "meta_mean_motion": 2.13101389,
        "meta_eccentricity": 0.00201,
        "meta_inclination": 63.616,
        "meta_ra_of_asc_node": 196.3279,
        "meta_arg_of_pericenter": 203.8362,
        "meta_mean_anomaly": 156.1227,
        "meta_ephemeris_type": 0,
        "meta_classification_type": "U",
        "meta_norad_cat_id": 40315,
        "meta_element_set_no": 999,
        "meta_rev_at_epoch": 8618,
        "meta_bstar": 0,
        "meta_mean_motion_dot": 1.2e-06,
        "meta_mean_motion_ddot": 0,
        "tle_line1": "1 40315U 14075A   25361.08255436  .00000120  00000+0  00000+0 0  9991",
        "tle_line2": "2 40315  63.6160 196.3279 0020100 203.8362 156.1227  2.13101389 86186"
      },
      "geometry": {
        "type": "Point",
        "coordinates": [
          151.79086266477884,
          -54.690314961399196
        ]
      }
    }
  ]
}